{
  "norad_id": 64284,
  "name": "HULIANWANG DIGUI-31",
  "history": [
    {
      "epoch": "2026-03-28T22:17:06.006336Z",
      "apogee_km": 1169.3390725961235,
      "perigee_km": 1166.506734471931,
      "latitude_deg": -2.0241703230945577e-05,
      "longitude_deg": -119.93277607021251,
      "height_km": 1170.3531102484746,
      "semi_major_axis_km": 7546.0599035340265,
      "eccentricity": 0.00018767,
      "inclination_deg": 86.5014,
      "raan_deg": 40.6842,
      "arg_perigee_deg": 70.9949,
      "mean_anomaly_deg": 289.1388,
      "mean_motion_rev_day": 13.24409811
    },
    {
      "epoch": "2026-03-29T03:43:28.130016Z",
      "apogee_km": 1169.3346535679484,
      "perigee_km": 1166.5109179961091,
      "latitude_deg": 3.3104008963251304e-05,
      "longitude_deg": 158.17525376917442,
      "height_km": 1170.3560333185744,
      "semi_major_axis_km": 7546.0597857820285,
      "eccentricity": 0.0001871,
      "inclination_deg": 86.5015,
      "raan_deg": 40.6078,
      "arg_perigee_deg": 71.0652,
      "mean_anomaly_deg": 289.0685,
      "mean_motion_rev_day": 13.24409842
    },
    {
      "epoch": "2026-03-30T05:06:31.377024Z",
      "apogee_km": 1169.3260299737722,
      "perigee_km": 1166.5188958535673,
      "latitude_deg": -3.055132460790594e-05,
      "longitude_deg": 136.01262787310915,
      "height_km": 1170.3551065655429,
      "semi_major_axis_km": 7546.059462913669,
      "eccentricity": 0.000186,
      "inclination_deg": 86.5017,
      "raan_deg": 40.2512,
      "arg_perigee_deg": 70.9214,
      "mean_anomaly_deg": 289.2121,
      "mean_motion_rev_day": 13.24409927
    },
    {
      "epoch": "2026-03-30T05:06:31.377888Z",
      "apogee_km": 1169.3246868796969,
      "perigee_km": 1166.5202693352521,
      "latitude_deg": -1.4152765129979952e-05,
      "longitude_deg": 136.01262526065068,
      "height_km": 1170.3561627014508,
      "semi_major_axis_km": 7546.059478107474,
      "eccentricity": 0.00018582,
      "inclination_deg": 86.5017,
      "raan_deg": 40.2512,
      "arg_perigee_deg": 70.9472,
      "mean_anomaly_deg": 289.1863,
      "mean_motion_rev_day": 13.24409923
    },
    {
      "epoch": "2026-03-30T14:10:28.248672Z",
      "apogee_km": 1169.3227015867724,
      "perigee_km": 1166.5220571087211,
      "latitude_deg": 9.029895656371986e-06,
      "longitude_deg": -0.47405356385989583,
      "height_km": 1170.3574368118864,
      "semi_major_axis_km": 7546.0593793477465,
      "eccentricity": 0.00018557,
      "inclination_deg": 86.5018,
      "raan_deg": 40.1238,
      "arg_perigee_deg": 70.9799,
      "mean_anomaly_deg": 289.1536,
      "mean_motion_rev_day": 13.24409949
    },
    {
      "epoch": "2026-03-30T21:25:37.745472Z",
      "apogee_km": 1169.3208818892026,
      "perigee_km": 1166.5235577364192,
      "latitude_deg": 3.495693471001789e-05,
      "longitude_deg": -109.66327689654766,
      "height_km": 1170.357437636679,
      "semi_major_axis_km": 7546.059219812811,
      "eccentricity": 0.00018535,
      "inclination_deg": 86.5018,
      "raan_deg": 40.022,
      "arg_perigee_deg": 70.9634,
      "mean_anomaly_deg": 289.1701,
      "mean_motion_rev_day": 13.24409991
    }
  ]
}